GLOBALSTAR M068 [-]     
1 32266U 07048D   24068.57975139 -.00000043  00000+0  33918-3 0  9998
2 32266  51.9875 281.5355 0001020 136.6482 242.1558 12.62781346758735
GLOBALSTAR M079 [+]     
1 37188U 10054A   24068.34182038 -.00000082  00000+0  11960-3 0  9996
2 37188  52.0025 117.8942 0000435  91.0214 350.1278 12.62267219617620
GLOBALSTAR M074 [+]     
1 37189U 10054B   24068.43262882 -.00000077  00000+0  15016-3 0  9993
2 37189  52.0006 117.0136 0000540 121.6624 251.8693 12.62266063618242
GLOBALSTAR M076 [+]     
1 37190U 10054C   24068.37991907 -.00000073  00000+0  17128-3 0  9997
2 37190  52.0018 117.3036 0000885  87.3934 285.9276 12.62275309617958
GLOBALSTAR M077 [+]     
1 37191U 10054D   24068.28756589 -.00000096  00000+0  42778-4 0  9998
2 37191  52.0066  74.3049 0000441 109.9568 263.3254 12.62270130618314
GLOBALSTAR M075 [+]     
1 37192U 10054E   24068.55433065 -.00000091  00000+0  68579-4 0  9992
2 37192  51.9938 159.2887 0000547 106.3531 279.8370 12.62271371617208
GLOBALSTAR M073 [+]     
1 37193U 10054F   24068.42240115 -.00000088  00000+0  89993-4 0  9990
2 37193  52.0055  73.1495 0000443  90.2374  57.6711 12.62262410619017
GLOBALSTAR M083 [+]     
1 37739U 11033A   24068.60145501 -.00000093  00000+0  59943-4 0  9995
2 37739  51.9884  21.9732 0000224  57.3568 124.3774 12.62266232588058
GLOBALSTAR M088 [+]     
1 37740U 11033B   24068.33504399 -.00000057  00000+0  25865-3 0  9996
2 37740  51.9729 288.6711 0000643  68.4759 102.6091 12.62265817583567
GLOBALSTAR M091 [+]     
1 37741U 11033C   24068.47276940 -.00000084  00000+0  10757-3 0  9994
2 37741  51.9976 250.9714 0000626  75.4486 301.8684 12.62272195584371
GLOBALSTAR M085 [+]     
1 37742U 11033D   24068.61763589 -.00000109  00000+0 -31521-4 0  9993
2 37742  51.9853 201.9809 0000548  97.0650 278.1493 12.62268381584908
GLOBALSTAR M081 [+]     
1 37743U 11033E   24068.64561162 -.00000113  00000+0 -49279-4 0  9994
2 37743  51.9942 204.3946 0000676  80.3863 302.5628 12.62270424585050
GLOBALSTAR M089 [+]     
1 37744U 11033F   24068.63345103 -.00000095  00000+0  50605-4 0  9992
2 37744  51.9921 158.7494 0001026  98.4815  48.1571 12.62272041585894
GLOBALSTAR M084 [+]     
1 38040U 11080A   24068.07770691 -.00000098  00000+0  32187-4 0  9994
2 38040  52.0031  27.4790 0000709  88.9871 351.5385 12.62271635563801
GLOBALSTAR M080 [+]     
1 38041U 11080B   24068.62799969 -.00000106  00000+0 -10120-4 0  9999
2 38041  52.0082  27.2482 0000855  78.1126 103.4568 12.62269585563998
GLOBALSTAR M082 [+]     
1 38042U 11080C   24068.48177153 -.00000075  00000+0  16269-3 0  9992
2 38042  52.0103 343.0932 0000039 183.8486 353.1524 12.62266503564689
GLOBALSTAR M092 [+]     
1 38043U 11080D   24068.26107311 -.00000098  00000+0  33875-4 0  9996
2 38043  52.0079  74.1145 0000559 121.0893 251.9384 12.62276805563115
GLOBALSTAR M090 [+]     
1 38044U 11080E   24068.50967595 -.00000077  00000+0  15022-3 0  9992
2 38044  51.9911 337.4155 0000358  66.7164 118.1809 12.62266749564807
GLOBALSTAR M086 [+]     
1 38045U 11080F   24068.53518619 -.00000079  00000+0  13721-3 0  9991
2 38045  51.9921 337.8538 0001308  31.2910 148.9583 12.62267958564757
GLOBALSTAR M097 [+]     
1 39072U 13005A   24068.44276381 -.00000087  00000+0  95953-4 0  9995
2 39072  52.0026 252.2076 0000680  73.0618 287.0323 12.62261570511993
GLOBALSTAR M093 [+]     
1 39073U 13005B   24067.46599863 -.00000080  00000+0  13395-3 0  9992
2 39073  51.9788 249.2303 0000632  67.9967 292.0966 12.62261902511945
GLOBALSTAR M094 [+]     
1 39074U 13005C   24068.49545254 -.00000096  00000+0  42746-4 0  9992
2 39074  51.9949 160.0108 0000478  98.8341 261.2579 12.62263419513568
GLOBALSTAR M096 [+]     
1 39075U 13005D   24068.42944228 -.00000114  00000+0 -55352-4 0  9999
2 39075  52.0057 208.3616 0000579  83.5127 276.5806 12.62273255512476
GLOBALSTAR M078 [+]     
1 39076U 13005E   24068.32430832 -.00000101  00000+0  16486-4 0  9990
2 39076  51.9877 293.8309 0000596 184.2489 175.8372 12.62260927511089
GLOBALSTAR M095 [+]     
1 39077U 13005F   24068.35020211 -.00000061  00000+0  24140-3 0  9990
2 39077  51.9795 291.1771 0000161  59.6261 300.4622 12.62264335510949
GLOBALSTAR M087 [+]     
1 52888U 22064A   24068.60637299 -.00000113  00000+0  29296-4 0  9994
2 52888  51.9746 199.0997 0010220 108.8404 251.3606 13.37566855 84069
